OBJECT B                
1 51825U 22019B   25029.82108231  .00024740  00000+0  77373-3 0  9994
2 51825  97.4029 105.7349 0012105 153.7439 206.4419 15.33062052161814
